{
  "type": "FeatureCollection",
  "features": [
    {
      "type": "Feature",
      "properties": {
        "layer_id": "j4EYBG",
        "name": "清故道",
        "group": "明清故道",
        "color": "#DC143C"
      },
      "geometry": {
        "type": "LineString",
        "coordinates": [
          [
            114.749451,
            34.897195
          ],
          [
            114.944458,
            34.888184
          ],
          [
            115.026855,
            34.773204
          ],
          [
            115.08934,
            34.710574
          ],
          [
            115.234222,
            34.682911
          ],
          [
            115.353012,
            34.67557
          ],
          [
            115.427856,
            34.629253
          ],
          [
            115.474548,
            34.634903
          ],
          [
            115.532227,
            34.583475
          ],
          [
            115.680542,
            34.567645
          ],
          [
            115.710754,
            34.606085
          ],
          [
            115.834351,
            34.567645
          ],
          [
            115.986099,
            34.597607
          ],
          [
            116.003952,
            34.632643
          ],
          [
            116.06575,
            34.613996
          ],
          [
            116.130981,
            34.610041
          ],
          [
            116.174927,
            34.566514
          ],
          [
            116.223101,
            34.577428
          ],
          [
            116.288995,
            34.556784
          ],
          [
            116.33678,
            34.526868
          ],
          [
            116.3974,
            34.535975
          ],
          [
            116.447649,
            34.496381
          ],
          [
            116.556702,
            34.48392
          ],
          [
            116.599274,
            34.48958
          ],
          [
            116.775055,
            34.466939
          ],
          [
            116.846466,
            34.374045
          ],
          [
            116.906891,
            34.361576
          ],
          [
            116.917877,
            34.392179
          ],
          [
            116.949463,
            34.393312
          ],
          [
            116.982422,
            34.361576
          ],
          [
            116.971436,
            34.323024
          ],
          [
            117.053833,
            34.326993
          ],
          [
            117.101898,
            34.301472
          ],
          [
            117.122454,
            34.282145
          ],
          [
            117.199321,
            34.284228
          ],
          [
            117.25708,
            34.231106
          ],
          [
            117.312012,
            34.257216
          ],
          [
            117.320251,
            34.202716
          ],
          [
            117.36145,
            34.199309
          ],
          [
            117.414353,
            34.16679
          ],
          [
            117.453461,
            34.157273
          ],
          [
            117.48642,
            34.129995
          ],
          [
            117.561951,
            34.119763
          ],
          [
            117.607851,
            34.054828
          ],
          [
            117.620572,
            34.066332
          ],
          [
            117.622375,
            34.092473
          ],
          [
            117.667694,
            34.106119
          ],
          [
            117.69516,
            34.073137
          ],
          [
            117.774811,
            34.054935
          ],
          [
            117.770849,
            34.071344
          ],
          [
            117.759705,
            34.101571
          ],
          [
            117.777557,
            34.102708
          ],
          [
            117.80365,
            34.089061
          ],
          [
            117.845291,
            34.105345
          ],
          [
            117.929993,
            34.100434
          ],
          [
            117.979431,
            34.058348
          ],
          [
            118.023376,
            34.048108
          ],
          [
            118.054962,
            34.019657
          ],
          [
            118.103503,
            34.02368
          ],
          [
            118.174108,
            34.005547
          ],
          [
            118.201904,
            33.983225
          ],
          [
            118.269701,
            33.968039
          ],
          [
            118.289795,
            33.95703
          ],
          [
            118.321054,
            33.859567
          ],
          [
            118.402609,
            33.794432
          ],
          [
            118.509521,
            33.739187
          ],
          [
            118.529083,
            33.767543
          ],
          [
            118.563608,
            33.742701
          ],
          [
            118.636811,
            33.698346
          ],
          [
            118.694916,
            33.679783
          ],
          [
            118.740234,
            33.628342
          ],
          [
            118.793793,
            33.548262
          ],
          [
            118.927002,
            33.550551
          ],
          [
            119.014656,
            33.606428
          ],
          [
            119.068451,
            33.603182
          ],
          [
            119.190674,
            33.635203
          ],
          [
            119.233246,
            33.736903
          ],
          [
            119.289551,
            33.75289
          ],
          [
            119.370575,
            33.688924
          ],
          [
            119.417597,
            33.671249
          ],
          [
            119.502411,
            33.702064
          ],
          [
            119.558716,
            33.832779
          ],
          [
            119.634247,
            33.899487
          ],
          [
            119.671326,
            33.992904
          ],
          [
            119.759216,
            34.045832
          ],
          [
            119.819641,
            34.072
          ],
          [
            119.863586,
            34.106119
          ],
          [
            119.877319,
            34.166363
          ],
          [
            120.016022,
            34.169772
          ],
          [
            120.130005,
            34.184542
          ],
          [
            120.161591,
            34.209531
          ],
          [
            120.213776,
            34.211802
          ],
          [
            120.242615,
            34.242459
          ]
        ]
      }
    },
    {
      "type": "Feature",
      "properties": {
        "layer_id": "a2NT19",
        "name": "东汉故道",
        "group": "汉唐故道",
        "color": "#1E90FF"
      },
      "geometry": {
        "type": "LineString",
        "coordinates": [
          [
            113.394012,
            34.996254
          ],
          [
            113.579407,
            35.03337
          ],
          [
            113.722229,
            35.099687
          ],
          [
            113.862305,
            35.176053
          ],
          [
            114.035339,
            35.234403
          ],
          [
            114.175415,
            35.384572
          ],
          [
            114.35257,
            35.438296
          ],
          [
            114.518738,
            35.516579
          ],
          [
            114.645081,
            35.695225
          ],
          [
            114.738464,
            35.713068
          ],
          [
            114.86618,
            35.707493
          ],
          [
            114.97467,
            35.661759
          ],
          [
            115.0914,
            35.687418
          ],
          [
            115.177917,
            35.726447
          ],
          [
            115.382933,
            35.780178
          ],
          [
            115.532227,
            35.791083
          ],
          [
            115.680542,
            35.857892
          ],
          [
            115.702515,
            36.069082
          ],
          [
            115.795898,
            36.22655
          ],
          [
            115.905762,
            36.235412
          ],
          [
            116.136475,
            36.354951
          ],
          [
            116.119995,
            36.419072
          ],
          [
            116.229858,
            36.441171
          ],
          [
            116.38916,
            36.461054
          ],
          [
            116.50177,
            36.49639
          ],
          [
            116.529236,
            36.567012
          ],
          [
            116.467487,
            36.764854
          ],
          [
            116.400146,
            36.875227
          ],
          [
            116.444092,
            36.941111
          ],
          [
            116.620294,
            37.076545
          ],
          [
            116.849082,
            37.28242
          ],
          [
            116.954956,
            37.309014
          ],
          [
            117.074927,
            37.260878
          ],
          [
            117.186489,
            37.230254
          ],
          [
            117.386169,
            37.28935
          ],
          [
            117.509766,
            37.359242
          ],
          [
            117.726746,
            37.337408
          ],
          [
            117.935486,
            37.37234
          ],
          [
            118.289795,
            37.479217
          ]
        ]
      }
    },
    {
      "type": "Feature",
      "properties": {
        "layer_id": "CB4TEU",
        "name": "元故道",
        "group": "金元故道",
        "color": "#A0522D"
      },
      "geometry": {
        "type": "LineString",
        "coordinates": [
          [
            113.437958,
            35.021
          ],
          [
            113.520355,
            35.092945
          ],
          [
            113.57254,
            35.121032
          ],
          [
            113.686523,
            35.092945
          ],
          [
            113.803253,
            35.067097
          ],
          [
            113.941956,
            34.997379
          ],
          [
            114.083405,
            34.990629
          ],
          [
            114.175415,
            34.980502
          ],
          [
            114.260559,
            34.945614
          ],
          [
            114.375916,
            34.937734
          ],
          [
            114.461746,
            34.9017
          ],
          [
            114.613495,
            34.826205
          ],
          [
            114.67392,
            34.793506
          ],
          [
            114.717865,
            34.70888
          ],
          [
            114.801636,
            34.586867
          ],
          [
            114.877167,
            34.567645
          ],
          [
            115.037842,
            34.552942
          ],
          [
            115.117493,
            34.563121
          ],
          [
            115.389404,
            34.488448
          ],
          [
            115.462189,
            34.446556
          ],
          [
            115.506134,
            34.364977
          ],
          [
            115.578918,
            34.321889
          ],
          [
            115.654449,
            34.304875
          ],
          [
            115.804138,
            34.396712
          ],
          [
            115.892029,
            34.334364
          ],
          [
            116.054077,
            34.375179
          ],
          [
            116.152954,
            34.396712
          ],
          [
            116.258698,
            34.389913
          ],
          [
            116.354828,
            34.340034
          ],
          [
            116.472931,
            34.292396
          ],
          [
            116.60202,
            34.296934
          ],
          [
            116.766815,
            34.294665
          ],
          [
            117.016754,
            34.287857
          ],
          [
            117.207642,
            34.284453
          ],
          [
            117.239227,
            34.237918
          ],
          [
            117.25708,
            34.231106
          ],
          [
            117.312012,
            34.257216
          ],
          [
            117.320251,
            34.24473
          ],
          [
            117.320251,
            34.202716
          ],
          [
            117.331238,
            34.19363
          ],
          [
            117.36145,
            34.199309
          ],
          [
            117.406769,
            34.168636
          ],
          [
            117.453461,
            34.157273
          ],
          [
            117.48642,
            34.129995
          ],
          [
            117.530365,
            34.128858
          ],
          [
            117.561951,
            34.119763
          ],
          [
            117.59491,
            34.057211
          ],
          [
            117.619629,
            34.052659
          ],
          [
            117.622375,
            34.092473
          ],
          [
            117.667694,
            34.106119
          ],
          [
            117.69516,
            34.073137
          ],
          [
            117.774811,
            34.054935
          ],
          [
            117.766571,
            34.089061
          ],
          [
            117.777557,
            34.102708
          ],
          [
            117.80365,
            34.089061
          ],
          [
            117.853088,
            34.108393
          ],
          [
            117.929993,
            34.100434
          ],
          [
            117.979431,
            34.058348
          ],
          [
            118.054962,
            34.019657
          ],
          [
            118.123627,
            34.025348
          ],
          [
            118.277435,
            33.965003
          ],
          [
            118.311768,
            33.868135
          ],
          [
            118.385925,
            33.799691
          ],
          [
            118.465576,
            33.774581
          ],
          [
            118.547974,
            33.765449
          ],
          [
            118.580933,
            33.717486
          ],
          [
            118.674316,
            33.685496
          ],
          [
            118.740234,
            33.628342
          ],
          [
            118.797913,
            33.573438
          ],
          [
            118.995667,
            33.60547
          ],
          [
            119.086304,
            33.610045
          ],
          [
            119.190674,
            33.635203
          ],
          [
            119.240112,
            33.740329
          ],
          [
            119.273071,
            33.751748
          ],
          [
            119.347229,
            33.703778
          ],
          [
            119.421387,
            33.669497
          ],
          [
            119.487305,
            33.694638
          ],
          [
            119.53949,
            33.797409
          ],
          [
            119.599915,
            33.872696
          ],
          [
            119.634247,
            33.899487
          ],
          [
            119.6521,
            33.959878
          ]
        ]
      }
    },
    {
      "type": "Feature",
      "properties": {
        "layer_id": "nraTUi",
        "name": "春秋故道",
        "group": "禹河故道",
        "color": "#800080"
      },
      "geometry": {
        "type": "LineString",
        "coordinates": [
          [
            113.57666,
            34.994004
          ],
          [
            113.812866,
            35.070469
          ],
          [
            114.005127,
            35.137879
          ],
          [
            114.153442,
            35.250105
          ],
          [
            114.329224,
            35.38905
          ],
          [
            114.43549,
            35.532349
          ],
          [
            114.510498,
            35.670685
          ],
          [
            114.521484,
            35.840082
          ],
          [
            114.581909,
            35.973561
          ],
          [
            114.646858,
            36.132133
          ],
          [
            114.718107,
            36.227984
          ],
          [
            114.829102,
            36.377068
          ],
          [
            114.960938,
            36.606709
          ],
          [
            115.059814,
            36.844461
          ],
          [
            115.065308,
            37.081476
          ],
          [
            115.065308,
            37.309014
          ],
          [
            115.109253,
            37.548933
          ],
          [
            115.3125,
            37.744657
          ],
          [
            115.476872,
            37.868849
          ],
          [
            115.606384,
            37.944198
          ],
          [
            115.757024,
            38.016139
          ],
          [
            115.883789,
            38.08269
          ],
          [
            116.114502,
            38.160476
          ],
          [
            116.394653,
            38.25975
          ],
          [
            116.564941,
            38.35458
          ],
          [
            116.655732,
            38.446379
          ],
          [
            116.709193,
            38.540979
          ],
          [
            116.828613,
            38.681222
          ],
          [
            116.894531,
            38.758367
          ],
          [
            117.012634,
            38.816171
          ],
          [
            117.131287,
            38.846981
          ],
          [
            117.235107,
            38.873929
          ]
        ]
      }
    },
    {
      "type": "Feature",
      "properties": {
        "layer_id": "tMLFpm",
        "name": "黄河北流",
        "group": "北宋故道",
        "color": "#228B22"
      },
      "geometry": {
        "type": "LineString",
        "coordinates": [
          [
            113.524475,
            34.998504
          ],
          [
            113.768921,
            35.106428
          ],
          [
            113.930969,
            35.180543
          ],
          [
            114.062805,
            35.236646
          ],
          [
            114.044952,
            35.302798
          ],
          [
            114.127799,
            35.357955
          ],
          [
            114.378662,
            35.432701
          ],
          [
            114.522858,
            35.550105
          ],
          [
            114.67804,
            35.633861
          ],
          [
            114.774214,
            35.711507
          ],
          [
            114.884778,
            35.699655
          ],
          [
            114.919739,
            35.730907
          ],
          [
            114.930725,
            35.895725
          ],
          [
            114.963684,
            35.971338
          ],
          [
            114.971924,
            36.05132
          ],
          [
            115.08728,
            36.133438
          ],
          [
            115.114746,
            36.370433
          ],
          [
            115.224609,
            36.657403
          ],
          [
            115.235596,
            36.800488
          ],
          [
            115.348206,
            36.91696
          ],
          [
            115.444336,
            37.026677
          ],
          [
            115.53772,
            37.125286
          ],
          [
            115.545959,
            37.228142
          ],
          [
            115.620117,
            37.378888
          ],
          [
            115.655823,
            37.437793
          ],
          [
            115.669556,
            37.514083
          ],
          [
            115.749207,
            37.640335
          ],
          [
            115.72998,
            37.775057
          ],
          [
            115.919495,
            37.929034
          ],
          [
            115.919495,
            37.926868
          ],
          [
            116.025238,
            38.037276
          ],
          [
            116.161194,
            38.037276
          ],
          [
            116.313629,
            38.037276
          ],
          [
            116.471558,
            38.074041
          ],
          [
            116.630859,
            38.108628
          ],
          [
            116.838226,
            38.226314
          ],
          [
            116.861572,
            38.32873
          ],
          [
            116.902771,
            38.431001
          ],
          [
            116.862946,
            38.546017
          ],
          [
            116.842346,
            38.644763
          ],
          [
            116.909637,
            38.744444
          ],
          [
            116.92749,
            38.854681
          ],
          [
            116.906891,
            38.964748
          ],
          [
            116.938477,
            39.025585
          ],
          [
            116.993408,
            39.051185
          ],
          [
            117.018127,
            39.121537
          ],
          [
            117.112885,
            39.142842
          ],
          [
            117.195282,
            39.142842
          ],
          [
            117.276306,
            39.079974
          ],
          [
            117.443848,
            39.031986
          ],
          [
            117.524872,
            38.999976
          ],
          [
            117.644348,
            39.010648
          ]
        ]
      }
    },
    {
      "type": "Feature",
      "properties": {
        "layer_id": "a3N9zQ",
        "name": "隋唐故道",
        "group": "汉唐故道",
        "color": "#1E90FF"
      },
      "geometry": {
        "type": "LineString",
        "coordinates": [
          [
            113.394012,
            34.996254
          ],
          [
            113.579407,
            35.03337
          ],
          [
            113.722229,
            35.099687
          ],
          [
            113.862305,
            35.176053
          ],
          [
            114.035339,
            35.234403
          ],
          [
            114.175415,
            35.384572
          ],
          [
            114.35257,
            35.438296
          ],
          [
            114.518738,
            35.516579
          ],
          [
            114.645081,
            35.695225
          ],
          [
            114.738464,
            35.713068
          ],
          [
            114.831848,
            35.737595
          ],
          [
            114.98291,
            35.686302
          ],
          [
            115.08728,
            35.704147
          ],
          [
            115.177917,
            35.726447
          ],
          [
            115.382933,
            35.780178
          ],
          [
            115.573425,
            35.757657
          ],
          [
            115.677795,
            35.833402
          ],
          [
            115.702515,
            36.069082
          ],
          [
            115.768433,
            36.22655
          ],
          [
            115.905762,
            36.235412
          ],
          [
            116.073303,
            36.348315
          ],
          [
            116.144714,
            36.4036
          ],
          [
            116.251831,
            36.427912
          ],
          [
            116.38916,
            36.461054
          ],
          [
            116.413879,
            36.517362
          ],
          [
            116.420746,
            36.638672
          ],
          [
            116.467487,
            36.764854
          ],
          [
            116.490784,
            36.890605
          ],
          [
            116.542969,
            37.017905
          ],
          [
            116.650085,
            37.132951
          ],
          [
            116.806641,
            37.243448
          ],
          [
            116.949463,
            37.294813
          ],
          [
            117.074927,
            37.260878
          ],
          [
            117.186489,
            37.230254
          ],
          [
            117.386169,
            37.28935
          ],
          [
            117.468567,
            37.337408
          ],
          [
            117.726746,
            37.337408
          ],
          [
            117.957458,
            37.363609
          ],
          [
            118.289795,
            37.479217
          ],
          [
            118.369446,
            37.631635
          ]
        ]
      }
    },
    {
      "type": "Feature",
      "properties": {
        "layer_id": "G8uMxZ",
        "name": "元故道",
        "group": "金元故道",
        "color": "#A0522D"
      },
      "geometry": {
        "type": "LineString",
        "coordinates": [
          [
            114.375916,
            34.937734
          ],
          [
            114.466553,
            34.95687
          ],
          [
            114.679413,
            34.977127
          ],
          [
            114.944458,
            34.995129
          ],
          [
            115.149078,
            34.979377
          ],
          [
            115.20401,
            34.95687
          ],
          [
            115.377045,
            34.730327
          ],
          [
            115.453949,
            34.624168
          ],
          [
            115.499268,
            34.548418
          ],
          [
            115.599518,
            34.481656
          ],
          [
            115.714874,
            34.448821
          ],
          [
            115.760193,
            34.438628
          ],
          [
            115.804138,
            34.396712
          ]
        ]
      }
    },
    {
      "type": "Feature",
      "properties": {
        "layer_id": "g6TUc0",
        "name": "明故道",
        "group": "明清故道",
        "color": "#DC143C"
      },
      "geometry": {
        "type": "LineString",
        "coordinates": [
          [
            114.749451,
            34.897195
          ],
          [
            114.944458,
            34.888184
          ],
          [
            115.026855,
            34.773204
          ],
          [
            115.144958,
            34.759666
          ],
          [
            115.30426,
            34.782228
          ],
          [
            115.364592,
            34.746651
          ],
          [
            115.532227,
            34.583475
          ],
          [
            115.680542,
            34.567645
          ],
          [
            115.710754,
            34.606085
          ],
          [
            115.834351,
            34.567645
          ],
          [
            115.990906,
            34.594781
          ],
          [
            116.023741,
            34.611012
          ],
          [
            116.113129,
            34.599302
          ],
          [
            116.174927,
            34.566514
          ],
          [
            116.223101,
            34.577428
          ],
          [
            116.288995,
            34.556784
          ],
          [
            116.33678,
            34.526868
          ],
          [
            116.3974,
            34.535975
          ],
          [
            116.447649,
            34.496381
          ],
          [
            116.556702,
            34.48392
          ],
          [
            116.599274,
            34.48958
          ],
          [
            116.775055,
            34.466939
          ],
          [
            116.846466,
            34.374045
          ],
          [
            116.906891,
            34.361576
          ],
          [
            116.917877,
            34.392179
          ],
          [
            116.949463,
            34.393312
          ],
          [
            116.982422,
            34.361576
          ],
          [
            116.971436,
            34.323024
          ],
          [
            117.036001,
            34.287514
          ],
          [
            117.073059,
            34.308278
          ],
          [
            117.101898,
            34.301472
          ],
          [
            117.122454,
            34.282145
          ],
          [
            117.199321,
            34.284228
          ],
          [
            117.25708,
            34.231106
          ],
          [
            117.312012,
            34.257216
          ],
          [
            117.320251,
            34.202716
          ],
          [
            117.36145,
            34.199309
          ],
          [
            117.414353,
            34.16679
          ],
          [
            117.453461,
            34.157273
          ],
          [
            117.48642,
            34.129995
          ],
          [
            117.561951,
            34.119763
          ],
          [
            117.607851,
            34.054828
          ],
          [
            117.620572,
            34.066332
          ],
          [
            117.622375,
            34.092473
          ],
          [
            117.667694,
            34.106119
          ],
          [
            117.69516,
            34.073137
          ],
          [
            117.774811,
            34.054935
          ],
          [
            117.770849,
            34.071344
          ],
          [
            117.759705,
            34.101571
          ],
          [
            117.777557,
            34.102708
          ],
          [
            117.80365,
            34.089061
          ],
          [
            117.845291,
            34.105345
          ],
          [
            117.929993,
            34.100434
          ],
          [
            117.979431,
            34.058348
          ],
          [
            118.023376,
            34.048108
          ],
          [
            118.054962,
            34.019657
          ],
          [
            118.103503,
            34.02368
          ],
          [
            118.174108,
            34.005547
          ],
          [
            118.201904,
            33.983225
          ],
          [
            118.269701,
            33.968039
          ],
          [
            118.289795,
            33.95703
          ],
          [
            118.321054,
            33.859567
          ],
          [
            118.402609,
            33.794432
          ],
          [
            118.509521,
            33.739187
          ],
          [
            118.529083,
            33.767543
          ],
          [
            118.563608,
            33.742701
          ],
          [
            118.636811,
            33.698346
          ],
          [
            118.694916,
            33.679783
          ],
          [
            118.740234,
            33.628342
          ],
          [
            118.793793,
            33.548262
          ],
          [
            118.927002,
            33.550551
          ],
          [
            119.014656,
            33.606428
          ],
          [
            119.068451,
            33.603182
          ],
          [
            119.190674,
            33.635203
          ],
          [
            119.233246,
            33.736903
          ],
          [
            119.289551,
            33.75289
          ],
          [
            119.370575,
            33.688924
          ],
          [
            119.417597,
            33.671249
          ],
          [
            119.502411,
            33.702064
          ],
          [
            119.558716,
            33.832779
          ],
          [
            119.634247,
            33.899487
          ],
          [
            119.671326,
            33.992904
          ],
          [
            119.759216,
            34.045832
          ]
        ]
      }
    },
    {
      "type": "Feature",
      "properties": {
        "layer_id": "ZhutS5",
        "name": "战国故道",
        "group": "禹河故道",
        "color": "#800080"
      },
      "geometry": {
        "type": "LineString",
        "coordinates": [
          [
            113.57666,
            34.994004
          ],
          [
            113.812866,
            35.070469
          ],
          [
            114.005127,
            35.137879
          ],
          [
            114.153442,
            35.250105
          ],
          [
            114.329224,
            35.38905
          ],
          [
            114.43549,
            35.532349
          ],
          [
            114.664307,
            35.652833
          ],
          [
            114.686279,
            35.848987
          ],
          [
            114.746704,
            36.044658
          ],
          [
            114.823608,
            36.177791
          ],
          [
            114.873047,
            36.288563
          ],
          [
            114.922485,
            36.416862
          ],
          [
            114.960938,
            36.606709
          ],
          [
            115.059814,
            36.844461
          ],
          [
            115.065308,
            37.081476
          ],
          [
            115.131226,
            37.295906
          ],
          [
            115.197144,
            37.566351
          ],
          [
            115.3125,
            37.744657
          ],
          [
            115.476872,
            37.868849
          ],
          [
            115.565186,
            37.957192
          ],
          [
            115.686035,
            38.017804
          ],
          [
            115.845337,
            38.09566
          ],
          [
            116.054077,
            38.199339
          ],
          [
            116.345215,
            38.272689
          ],
          [
            116.603394,
            38.444985
          ],
          [
            116.709193,
            38.540979
          ],
          [
            116.828613,
            38.681222
          ],
          [
            116.894531,
            38.758367
          ],
          [
            117.082672,
            38.759438
          ],
          [
            117.274933,
            38.758367
          ]
        ]
      }
    },
    {
      "type": "Feature",
      "properties": {
        "layer_id": "c9g3hn",
        "name": "金故道",
        "group": "金元故道",
        "color": "#A0522D"
      },
      "geometry": {
        "type": "LineString",
        "coordinates": [
          [
            113.518982,
            35.003566
          ],
          [
            113.615849,
            35.050296
          ],
          [
            113.725662,
            35.15753
          ],
          [
            113.863678,
            35.223746
          ],
          [
            114.093018,
            35.367776
          ],
          [
            114.529724,
            35.427106
          ],
          [
            114.748077,
            35.317366
          ],
          [
            114.848328,
            35.312884
          ],
          [
            115.239716,
            35.209722
          ],
          [
            115.344086,
            35.150232
          ],
          [
            115.547333,
            34.900574
          ],
          [
            115.718994,
            34.83635
          ],
          [
            115.830231,
            34.760794
          ],
          [
            115.957947,
            34.613996
          ],
          [
            116.132355,
            34.606085
          ],
          [
            116.161194,
            34.57443
          ],
          [
            116.231232,
            34.577822
          ],
          [
            116.257324,
            34.560859
          ],
          [
            116.30127,
            34.555204
          ],
          [
            116.345215,
            34.520136
          ],
          [
            116.3974,
            34.535975
          ],
          [
            116.427612,
            34.522399
          ],
          [
            116.472931,
            34.463542
          ],
          [
            116.530609,
            34.434098
          ],
          [
            116.564941,
            34.388779
          ],
          [
            116.766815,
            34.294665
          ],
          [
            116.875305,
            34.21748
          ],
          [
            116.93985,
            34.207259
          ],
          [
            116.979675,
            34.218616
          ],
          [
            117.0401,
            34.279914
          ],
          [
            117.207642,
            34.284453
          ],
          [
            117.239227,
            34.237918
          ],
          [
            117.25708,
            34.231106
          ],
          [
            117.312012,
            34.257216
          ],
          [
            117.320251,
            34.24473
          ],
          [
            117.320251,
            34.202716
          ],
          [
            117.331238,
            34.19363
          ],
          [
            117.36145,
            34.199309
          ],
          [
            117.406769,
            34.168636
          ],
          [
            117.453461,
            34.157273
          ],
          [
            117.48642,
            34.129995
          ],
          [
            117.530365,
            34.128858
          ],
          [
            117.561951,
            34.119763
          ],
          [
            117.59491,
            34.057211
          ],
          [
            117.619629,
            34.052659
          ],
          [
            117.622375,
            34.092473
          ],
          [
            117.667694,
            34.106119
          ],
          [
            117.69516,
            34.073137
          ],
          [
            117.774811,
            34.054935
          ],
          [
            117.766571,
            34.089061
          ],
          [
            117.777557,
            34.102708
          ],
          [
            117.80365,
            34.089061
          ],
          [
            117.853088,
            34.108393
          ],
          [
            117.929993,
            34.100434
          ],
          [
            117.979431,
            34.058348
          ],
          [
            118.054962,
            34.019657
          ],
          [
            118.123627,
            34.025348
          ],
          [
            118.277435,
            33.965003
          ],
          [
            118.311768,
            33.868135
          ],
          [
            118.385925,
            33.799691
          ],
          [
            118.465576,
            33.774581
          ],
          [
            118.547974,
            33.765449
          ],
          [
            118.580933,
            33.717486
          ],
          [
            118.674316,
            33.685496
          ],
          [
            118.740234,
            33.628342
          ],
          [
            118.797913,
            33.573438
          ],
          [
            118.995667,
            33.60547
          ],
          [
            119.086304,
            33.610045
          ],
          [
            119.190674,
            33.635203
          ],
          [
            119.240112,
            33.740329
          ],
          [
            119.273071,
            33.751748
          ],
          [
            119.347229,
            33.703778
          ],
          [
            119.421387,
            33.669497
          ],
          [
            119.487305,
            33.694638
          ],
          [
            119.53949,
            33.797409
          ],
          [
            119.599915,
            33.872696
          ],
          [
            119.646606,
            33.945638
          ]
        ]
      }
    },
    {
      "type": "Feature",
      "properties": {
        "layer_id": "PLxsYc",
        "name": "西周故道",
        "group": "禹河故道",
        "color": "#800080"
      },
      "geometry": {
        "type": "LineString",
        "coordinates": [
          [
            113.57666,
            34.994004
          ],
          [
            113.812866,
            35.070469
          ],
          [
            114.005127,
            35.137879
          ],
          [
            114.153442,
            35.250105
          ],
          [
            114.329224,
            35.38905
          ],
          [
            114.43549,
            35.532349
          ],
          [
            114.465725,
            35.801439
          ],
          [
            114.466553,
            35.89795
          ],
          [
            114.515991,
            36.013561
          ],
          [
            114.646858,
            36.132133
          ],
          [
            114.718107,
            36.227984
          ],
          [
            114.801636,
            36.478724
          ],
          [
            114.845581,
            36.721274
          ],
          [
            114.933472,
            36.804887
          ],
          [
            114.944458,
            36.971838
          ],
          [
            115.043335,
            37.103384
          ],
          [
            115.175171,
            37.252194
          ],
          [
            115.274048,
            37.514083
          ],
          [
            115.290527,
            37.670777
          ],
          [
            115.3125,
            37.744657
          ],
          [
            115.476872,
            37.868849
          ],
          [
            115.606384,
            37.944198
          ],
          [
            115.757024,
            38.016139
          ],
          [
            115.883789,
            38.08269
          ],
          [
            116.032104,
            38.08269
          ],
          [
            116.235352,
            38.134557
          ],
          [
            116.422119,
            38.207972
          ],
          [
            116.564941,
            38.35458
          ],
          [
            116.655732,
            38.446379
          ],
          [
            116.709193,
            38.540979
          ],
          [
            116.828613,
            38.681222
          ],
          [
            116.894531,
            38.758367
          ],
          [
            117.012634,
            38.816171
          ],
          [
            117.131287,
            38.846981
          ],
          [
            117.235107,
            38.873929
          ]
        ]
      }
    },
    {
      "type": "Feature",
      "properties": {
        "layer_id": "ywBP1u",
        "name": "西汉故道",
        "group": "汉唐故道",
        "color": "#1E90FF"
      },
      "geometry": {
        "type": "LineString",
        "coordinates": [
          [
            113.394012,
            34.996254
          ],
          [
            113.579407,
            35.03337
          ],
          [
            113.722229,
            35.099687
          ],
          [
            113.862305,
            35.176053
          ],
          [
            114.035339,
            35.234403
          ],
          [
            114.175415,
            35.384572
          ],
          [
            114.35257,
            35.438296
          ],
          [
            114.518738,
            35.516579
          ],
          [
            114.645081,
            35.695225
          ],
          [
            114.738464,
            35.713068
          ],
          [
            114.903259,
            35.661759
          ],
          [
            114.977417,
            35.701917
          ],
          [
            114.99939,
            35.958
          ],
          [
            115.169678,
            36.126783
          ],
          [
            115.235596,
            36.330615
          ],
          [
            115.372925,
            36.44559
          ],
          [
            115.491028,
            36.652996
          ],
          [
            115.747854,
            36.65055
          ],
          [
            116.012878,
            36.73008
          ],
          [
            116.204289,
            36.695746
          ],
          [
            116.328735,
            36.708064
          ],
          [
            116.378174,
            36.822478
          ],
          [
            116.378174,
            36.96306
          ],
          [
            116.345524,
            37.099295
          ],
          [
            116.38916,
            37.212832
          ],
          [
            116.339722,
            37.367974
          ],
          [
            116.361694,
            37.463959
          ],
          [
            116.342468,
            37.579413
          ],
          [
            116.400146,
            37.68382
          ],
          [
            116.479797,
            37.781569
          ],
          [
            116.507263,
            37.864012
          ],
          [
            116.639099,
            38.052417
          ],
          [
            116.784668,
            38.199339
          ],
          [
            116.930237,
            38.296404
          ],
          [
            117.075806,
            38.333039
          ],
          [
            117.37793,
            38.556757
          ]
        ]
      }
    },
    {
      "type": "Feature",
      "properties": {
        "layer_id": "Mj2lx2",
        "name": "黄河东流",
        "group": "北宋故道",
        "color": "#228B22"
      },
      "geometry": {
        "type": "LineString",
        "coordinates": [
          [
            115.287781,
            36.206607
          ],
          [
            115.411377,
            36.299632
          ],
          [
            115.523987,
            36.416862
          ],
          [
            115.606384,
            36.540536
          ],
          [
            115.702515,
            36.57363
          ],
          [
            115.919495,
            36.619937
          ],
          [
            116.06781,
            36.70366
          ],
          [
            116.125488,
            36.813683
          ],
          [
            116.185913,
            36.969644
          ],
          [
            116.30127,
            37.092431
          ],
          [
            116.619873,
            37.328673
          ],
          [
            116.82312,
            37.477038
          ],
          [
            116.891785,
            37.498831
          ],
          [
            117.045593,
            37.583766
          ],
          [
            117.130737,
            37.666429
          ],
          [
            117.320251,
            37.733797
          ],
          [
            117.375183,
            37.733797
          ],
          [
            117.542725,
            37.874853
          ],
          [
            117.658081,
            37.903032
          ],
          [
            117.820129,
            37.920368
          ],
          [
            117.976685,
            37.974515
          ]
        ]
      }
    },
    {
      "type": "Feature",
      "properties": {
        "layer_id": "sso8Dm",
        "name": "京东故道",
        "group": "北宋故道",
        "color": "#228B22"
      },
      "geometry": {
        "type": "LineString",
        "coordinates": [
          [
            114.884778,
            35.699655
          ],
          [
            115.032349,
            35.706377
          ],
          [
            115.090027,
            35.727562
          ],
          [
            115.252075,
            35.723103
          ],
          [
            115.41007,
            35.77697
          ],
          [
            115.584412,
            35.792197
          ],
          [
            115.64621,
            35.834515
          ],
          [
            115.655823,
            35.972449
          ],
          [
            115.713501,
            36.05354
          ],
          [
            115.749234,
            36.180719
          ],
          [
            115.784912,
            36.285242
          ],
          [
            115.841217,
            36.325084
          ],
          [
            115.981293,
            36.304059
          ],
          [
            116.132355,
            36.312912
          ],
          [
            116.205139,
            36.352739
          ],
          [
            116.242218,
            36.474307
          ],
          [
            116.378174,
            36.554878
          ],
          [
            116.383667,
            36.692649
          ],
          [
            116.390533,
            36.79499
          ],
          [
            116.444092,
            36.941111
          ],
          [
            116.468811,
            37.048601
          ],
          [
            116.69942,
            37.167789
          ],
          [
            116.838333,
            37.27276
          ],
          [
            116.977801,
            37.287149
          ],
          [
            117.134813,
            37.244441
          ],
          [
            117.312805,
            37.267643
          ],
          [
            117.419128,
            37.333041
          ],
          [
            117.537231,
            37.3647
          ],
          [
            117.659454,
            37.384344
          ],
          [
            117.792664,
            37.521708
          ],
          [
            117.884674,
            37.670777
          ],
          [
            117.914886,
            37.792422
          ],
          [
            118.006897,
            37.851001
          ]
        ]
      }
    },
    {
      "type": "Feature",
      "properties": {
        "layer_id": "EWp93k",
        "name": "黄河北流",
        "group": "北宋故道",
        "color": "#228B22"
      },
      "geometry": {
        "type": "LineString",
        "coordinates": [
          [
            115.090027,
            35.727562
          ],
          [
            115.08728,
            35.786627
          ],
          [
            115.188904,
            35.886825
          ],
          [
            115.3125,
            36.05354
          ],
          [
            115.315247,
            36.160053
          ],
          [
            115.287781,
            36.206607
          ],
          [
            115.243835,
            36.261992
          ],
          [
            115.293274,
            36.399178
          ],
          [
            115.350952,
            36.531709
          ],
          [
            115.504761,
            36.670622
          ],
          [
            115.639343,
            36.690446
          ],
          [
            115.672302,
            36.747688
          ],
          [
            115.702515,
            36.890605
          ],
          [
            115.806885,
            36.934525
          ],
          [
            115.919495,
            36.980615
          ],
          [
            115.9552,
            37.059561
          ],
          [
            116.018372,
            37.463959
          ],
          [
            116.037598,
            37.585942
          ],
          [
            115.979919,
            37.777228
          ],
          [
            116.065063,
            37.900865
          ],
          [
            116.065063,
            37.978845
          ],
          [
            116.025238,
            38.037276
          ]
        ]
      }
    }
  ]
}